NORAD_CAT_ID,OBJECT_NAME,OBJECT_TYPE,EPOCH,MEAN_MOTION,ECCENTRICITY,INCLINATION,RA_OF_ASC_NODE,ARG_OF_PERICENTER,MEAN_ANOMALY,BSTAR,MEAN_MOTION_DOT,MEAN_MOTION_DDOT,TLE_LINE0,TLE_LINE1,TLE_LINE2,SEMIMAJOR_AXIS,PERIOD,APOGEE,PERIGEE,DECAYED
51959.0,STARLINK-3704,PAYLOAD,2023-07-27 10:03:37,15.04741375,0.0001372,53.0545,4.5941,98.613,261.5013,-0.00014788,-2.383e-05,0.0,0 STARLINK-3704,1 51959U 22025D   23208.41918002 -.00002383  00000-0 -14788-3 0  9999,2 51959  53.0545   4.5941 0001372  98.6130 261.5013 15.04741375 77869,6930.437,95.698,553.253,551.351,0.0
51959.0,STARLINK-3704,PAYLOAD,2023-07-28 09:58:15,15.04762993,0.0001265,53.0551,0.1322,92.7995,267.3138,-1.5621e-05,-5e-06,0.0,0 STARLINK-3704,1 51959U 22025D   23209.41545469 -.00000500  00000-0 -15621-4 0  9990,2 51959  53.0551   0.1322 0001265  92.7995 267.3138 15.04762993 78015,6930.37,95.696,553.112,551.359,0.0
51959.0,STARLINK-3704,PAYLOAD,2023-07-28 21:07:44,15.04768094,0.0002338,53.0539,358.0504,112.2746,247.8491,0.00015778,1.972e-05,0.0,0 STARLINK-3704,1 51959U 22025D   23209.88037827  .00001972  00000-0  15778-3 0  9999,2 51959  53.0539 358.0504 0002338 112.2746 247.8491 15.04768094 78082,6930.355,95.696,553.84,550.599,0.0
51959.0,STARLINK-3704,PAYLOAD,2023-07-29 03:30:17,15.04813414,0.000111,53.0539,356.8608,100.9913,259.12,-0.00032207,-4.871e-05,0.0,0 STARLINK-3704,1 51959U 22025D   23210.14603298 -.00004871  00000-0 -32207-3 0  9990,2 51959  53.0539 356.8608 0001110 100.9913 259.1200 15.04813414 78126,6930.215,95.693,552.85,551.311,0.0
51959.0,STARLINK-3704,PAYLOAD,2023-07-29 21:02:22,15.04779773,0.0001099,53.0549,353.5893,95.5795,264.5318,0.00031577,4.229e-05,0.0,0 STARLINK-3704,1 51959U 22025D   23210.87664607  .00004229  00000-0  31577-3 0  9995,2 51959  53.0549 353.5893 0001099  95.5795 264.5318 15.04779773 78231,6930.319,95.695,552.945,551.422,0.0
51959.0,STARLINK-3704,PAYLOAD,2023-07-30 09:47:32,15.04769816,0.0001348,53.0538,351.2097,99.5301,260.584,1.041e-05,-1.29e-06,0.0,0 STARLINK-3704,1 51959U 22025D   23211.40801087 -.00000129  00000-0  10410-4 0  9990,2 51959  53.0538 351.2097 0001348  99.5301 260.5840 15.04769816 78316,6930.349,95.696,553.149,551.28,0.0
51959.0,STARLINK-3704,PAYLOAD,2023-07-31 17:40:23,15.04774783,0.0001144,53.0535,345.261,107.4589,252.6524,-0.00012908,-2.117e-05,0.0,0 STARLINK-3704,1 51959U 22025D   23212.73637990 -.00002117  00000-0 -12908-3 0  9990,2 51959  53.0535 345.2610 0001144 107.4589 252.6524 15.04774783 78510,6930.334,95.695,552.992,551.406,0.0
51959.0,STARLINK-3704,PAYLOAD,2023-08-01 15:59:23,15.04765211,0.0001125,53.0541,341.0969,98.7455,261.3661,6.6349e-05,6.69e-06,0.0,0 STARLINK-3704,1 51959U 22025D   23213.66624544  .00000669  00000-0  66349-4 0  9991,2 51959  53.0541 341.0969 0001125  98.7455 261.3661 15.04765211 78651,6930.363,95.696,553.008,551.449,0.0
51959.0,STARLINK-3704,PAYLOAD,2023-08-02 20:40:57,15.04769989,0.0001156,53.054,335.7419,90.2979,269.8142,0.00020078,2.586e-05,0.0,0 STARLINK-3704,1 51959U 22025D   23214.86177864  .00002586  00000-0  20078-3 0  9990,2 51959  53.0540 335.7419 0001156  90.2979 269.8142 15.04769989 78835,6930.349,95.696,553.015,551.413,0.0
51959.0,STARLINK-3704,PAYLOAD,2023-08-03 07:50:25,15.04828648,8.24e-05,53.0536,333.659,97.4503,262.6579,-0.0015918,-0.00022932,0.0,0 STARLINK-3704,1 51959U 22025D   23215.32668389 -.00022932  00000-0 -15918-2 0  9994,2 51959  53.0536 333.6590 0000824  97.4503 262.6579 15.04828648 78901,6930.169,95.692,552.605,551.463,0.0
51959.0,STARLINK-3704,PAYLOAD,2023-08-03 14:13:02,15.04753847,0.0001196,53.0532,332.4694,75.9869,284.1252,-4.7676e-05,-9.56e-06,0.0,0 STARLINK-3704,1 51959U 22025D   23215.59239546 -.00000956  00000-0 -47676-4 0  9992,2 51959  53.0532 332.4694 0001196  75.9869 284.1252 15.04753847 78947,6930.398,95.697,553.092,551.435,0.0
51959.0,STARLINK-3704,PAYLOAD,2023-08-04 10:56:24,15.04769208,0.0001144,53.0529,328.6036,93.5552,266.5567,0.00021129,2.736e-05,0.0,0 STARLINK-3704,1 51959U 22025D   23216.45583493  .00002736  00000-0  21129-3 0  9991,2 51959  53.0529 328.6036 0001144  93.5552 266.5567 15.04769208 79074,6930.351,95.696,553.009,551.423,0.0
51959.0,STARLINK-3704,PAYLOAD,2023-08-04 18:54:36,15.0478077,0.0001266,53.0532,327.1159,103.8103,256.3026,0.00049854,6.839e-05,0.0,0 STARLINK-3704,1 51959U 22025D   23216.78792513  .00006839  00000-0  49854-3 0  9995,2 51959  53.0532 327.1159 0001266 103.8103 256.3026 15.04780770 79120,6930.316,95.695,553.058,551.303,0.0
51959.0,STARLINK-3704,PAYLOAD,2023-08-05 10:51:02,15.0478082,0.0001388,53.0532,324.1418,108.494,251.6199,0.00055209,7.604e-05,0.0,0 STARLINK-3704,1 51959U 22025D   23217.45211284  .00007604  00000-0  55209-3 0  9993,2 51959  53.0532 324.1418 0001388 108.4940 251.6199 15.04780820 79226,6930.316,95.695,553.142,551.219,0.0
51959.0,STARLINK-3704,PAYLOAD,2023-08-05 14:02:19,15.04769404,0.0001366,53.0522,323.5475,83.311,276.8033,-8.0968e-05,-1.431e-05,0.0,0 STARLINK-3704,1 51959U 22025D   23217.58495178 -.00001431  00000-0 -80968-4 0  9998,2 51959  53.0522 323.5475 0001366  83.3110 276.8033 15.04769404 79240,6930.351,95.696,553.162,551.269,0.0
51959.0,STARLINK-3704,PAYLOAD,2023-08-06 15:32:37,15.04771125,0.0001156,53.0526,318.7912,93.3097,266.8023,0.0015643,0.00022095,0.0,0 STARLINK-3704,1 51959U 22025D   23218.64765400  .00022095  00000-0  15643-2 0  9997,2 51959  53.0526 318.7912 0001156  93.3097 266.8023 15.04771125 79407,6930.345,95.696,553.011,551.409,0.0
51959.0,STARLINK-3704,PAYLOAD,2023-08-06 23:30:50,15.04765326,0.000103,53.0524,317.3017,82.6423,277.4683,0.00062642,8.663e-05,0.0,0 STARLINK-3704,1 51959U 22025D   23218.97974915  .00008663  00000-0  62642-3 0  9993,2 51959  53.0524 317.3017 0001030  82.6423 277.4683 15.04765326 79452,6930.363,95.696,552.942,551.514,0.0
51959.0,STARLINK-3704,PAYLOAD,2023-08-07 09:04:42,15.0476031,0.0001538,53.0532,315.521,93.5624,266.554,0.00023566,3.083e-05,0.0,0 STARLINK-3704,1 51959U 22025D   23219.37826666  .00003083  00000-0  23566-3 0  9990,2 51959  53.0532 315.5210 0001538  93.5624 266.5540 15.04760310 79519,6930.379,95.696,553.309,551.178,0.0
51959.0,STARLINK-3704,PAYLOAD,2023-08-08 12:10:38,15.04774713,0.0001333,53.0532,310.464,95.2725,264.8416,0.00042593,5.801e-05,0.0,0 STARLINK-3704,1 51959U 22025D   23220.50738455  .00005801  00000-0  42593-3 0  9996,2 51959  53.0532 310.4640 0001333  95.2725 264.8416 15.04774713 79687,6930.334,95.695,553.123,551.275,0.0
51959.0,STARLINK-3704,PAYLOAD,2023-08-09 16:52:12,15.04773589,0.0001148,53.0523,305.1092,88.5562,271.5558,0.00028927,3.85e-05,0.0,0 STARLINK-3704,1 51959U 22025D   23221.70292381  .00003850  00000-0  28927-3 0  9999,2 51959  53.0523 305.1092 0001148  88.5562 271.5558 15.04773589 79869,6930.338,95.695,552.998,551.407,0.0
51959.0,STARLINK-3704,PAYLOAD,2023-08-10 11:59:55,15.04774317,0.0001177,53.0523,301.5402,88.6355,271.4768,0.00020865,2.699e-05,0.0,0 STARLINK-3704,1 51959U 22025D   23222.49994854  .00002699  00000-0  20865-3 0  9993,2 51959  53.0523 301.5402 0001177  88.6355 271.4768 15.04774317 79982,6930.336,95.695,553.016,551.385,0.0
51959.0,STARLINK-3704,PAYLOAD,2023-08-11 11:54:34,15.04762165,0.0001154,53.0521,297.0783,90.0551,270.0569,1.5012e-05,-6.3e-07,0.0,0 STARLINK-3704,1 51959U 22025D   23223.49623493 -.00000063  00000-0  15012-4 0  9995,2 51959  53.0521 297.0783 0001154  90.0551 270.0569 15.04762165 80132,6930.373,95.696,553.038,551.438,0.0
51959.0,STARLINK-3704,PAYLOAD,2023-08-12 10:13:34,15.04774234,0.0001119,53.0527,292.9141,88.8915,271.2201,8.2238e-05,8.96e-06,0.0,0 STARLINK-3704,1 51959U 22025D   23224.42609258  .00000896  00000-0  82238-4 0  9999,2 51959  53.0527 292.9141 0001119  88.8915 271.2201 15.04774234 80271,6930.336,95.695,552.976,551.425,0.0
51959.0,STARLINK-3704,PAYLOAD,2023-08-12 21:23:04,15.04767225,0.00012,53.0526,290.832,85.5862,274.5264,1.8679e-05,-1.1e-07,0.0,0 STARLINK-3704,1 51959U 22025D   23224.89102898 -.00000011  00000-0  18679-4 0  9996,2 51959  53.0526 290.8320 0001200  85.5862 274.5264 15.04767225 80347,6930.357,95.696,553.054,551.391,0.0
51959.0,STARLINK-3704,PAYLOAD,2023-08-13 16:30:50,15.04730728,0.0002004,53.0534,287.2651,58.8809,301.2376,-0.00017416,-2.757e-05,0.0,0 STARLINK-3704,1 51959U 22025D   23225.68808821 -.00002757  00000-0 -17416-3 0  9990,2 51959  53.0534 287.2651 0002004  58.8809 301.2376 15.04730728 80463,6930.469,95.698,553.723,550.945,0.0
51959.0,STARLINK-3704,PAYLOAD,2023-08-14 03:40:20,15.04746905,0.0001072,53.0539,285.1825,88.959,271.1521,-9.6306e-05,-1.649e-05,0.0,0 STARLINK-3704,1 51959U 22025D   23226.15301315 -.00001649  00000-0 -96306-4 0  9994,2 51959  53.0539 285.1825 0001072  88.9590 271.1521 15.04746905 80532,6930.42,95.697,553.028,551.542,0.0
51959.0,STARLINK-3704,PAYLOAD,2023-08-14 10:02:53,15.04760891,0.0001411,53.0523,283.9942,95.3786,264.7363,3.083e-05,1.62e-06,0.0,0 STARLINK-3704,1 51959U 22025D   23226.41867538  .00000162  00000-0  30830-4 0  9994,2 51959  53.0523 283.9942 0001411  95.3786 264.7363 15.04760891 80573,6930.377,95.696,553.22,551.264,0.0
51959.0,STARLINK-3704,PAYLOAD,2023-08-14 16:25:27,15.04770985,0.0001257,53.0517,282.8008,90.6801,269.4331,0.00021478,2.786e-05,0.0,0 STARLINK-3704,1 51959U 22025D   23226.68434567  .00002786  00000-0  21478-3 0  9996,2 51959  53.0517 282.8008 0001257  90.6801 269.4331 15.04770985 80618,6930.346,95.696,553.082,551.34,0.0
51959.0,STARLINK-3704,PAYLOAD,2023-08-15 21:07:01,15.04782867,0.0001029,53.0519,277.4481,90.7355,269.3751,0.00059288,8.188e-05,0.0,0 STARLINK-3704,1 51959U 22025D   23227.87987812  .00008188  00000-0  59288-3 0  9996,2 51959  53.0519 277.4481 0001029  90.7355 269.3751 15.04782867 80793,6930.309,95.695,552.887,551.461,0.0
51959.0,STARLINK-3704,PAYLOAD,2023-08-16 14:39:05,15.04789309,0.0001452,53.051,274.1762,92.6192,267.4962,0.00024774,3.258e-05,0.0,0 STARLINK-3704,1 51959U 22025D   23228.61047567  .00003258  00000-0  24774-3 0  9998,2 51959  53.0510 274.1762 0001452  92.6192 267.4962 15.04789309 80904,6930.289,95.694,553.161,551.148,0.0
